{"type": "FeatureCollection", "features": [{"type": "Feature", "properties": {"zone": "RURAL", "name": "Zona Rural"}, "geometry": {"type": "Polygon", "coordinates": [[[-37.562, -5.2195], [-37.5303, -5.132], [-37.5246, -5.1164], [-37.4943, -5.0326], [-37.4886, -5.0169], [-37.4906, -5.0157], [-37.4925, -5.0137], [-37.4949, -5.0129], [-37.4973, -5.011], [-37.496, -5.0084], [-37.498, -5.0007], [-37.4984, -4.9965], [-37.4961, -4.9841], [-37.4955, -4.9786], [-37.4967, -4.9693], [-37.4964, -4.9647], [-37.4947, -4.9604], [-37.4937, -4.9496], [-37.4921, -4.9455], [-37.4915, -4.9432], [-37.492, -4.94], [-37.492, -4.9312], [-37.4924, -4.9245], [-37.4907, -4.9197], [-37.4865, -4.916], [-37.4823, -4.9133], [-37.4805, -4.9108], [-37.4783, -4.9087], [-37.4757, -4.9053], [-37.474, -4.9008], [-37.4722, -4.8996], [-37.4698, -4.8997], [-37.469, -4.8993], [-37.4684, -4.8974], [-37.4683, -4.8941], [-37.4668, -4.8912], [-37.466, -4.8886], [-37.4671, -4.8859], [-37.4464, -4.881], [-37.4273, -4.9115], [-37.4245, -4.9099], [-37.423, -4.9094], [-37.4214, -4.907], [-37.4162, -4.9078], [-37.4154, -4.907], [-37.4116, -4.9058], [-37.4031, -4.9094], [-37.4012, -4.9105], [-37.3993, -4.9105], [-37.3943, -4.9118], [-37.392, -4.9115], [-37.3762, -4.9099], [-37.3742, -4.9102], [-37.3699, -4.908], [-37.3685, -4.9082], [-37.3673, -4.9073], [-37.3651, -4.9074], [-37.3644, -4.9101], [-37.3629, -4.9148], [-37.3617, -4.9169], [-37.359, -4.9201], [-37.3563, -4.9229], [-37.3514, -4.9289], [-37.3488, -4.9313], [-37.3472, -4.9333], [-37.3453, -4.935], [-37.339, -4.9362], [-37.3364, -4.937], [-37.3345, -4.9389], [-37.3313, -4.9399], [-37.3286, -4.9428], [-37.3275, -4.9432], [-37.3248, -4.9435], [-37.3233, -4.943], [-37.3162, -4.943], [-37.3139, -4.9428], [-37.3078, -4.9456], [-37.2209, -4.9861], [-37.2088, -4.9917], [-37.1767, -4.9702], [-37.166, -5.0031], [-37.1667, -5.015], [-37.1649, -5.0155], [-37.1638, -5.0142], [-37.1596, -5.0123], [-37.1554, -5.0107], [-37.1498, -5.0098], [-37.1447, -5.0096], [-37.1401, -5.008], [-37.1366, -5.0051], [-37.1334, -5.0092], [-37.1322, -5.0117], [-37.1327, -5.0183], [-37.1314, -5.0213], [-37.132, -5.0244], [-37.131, -5.0249], [-37.1315, -5.0298], [-37.1318, -5.0305], [-37.1345, -5.0325], [-37.1366, -5.0354], [-37.1382, -5.037], [-37.1413, -5.0381], [-37.1418, -5.0407], [-37.1433, -5.0425], [-37.1469, -5.043], [-37.1502, -5.0449], [-37.1531, -5.0484], [-37.1532, -5.0504], [-37.1529, -5.0539], [-37.1517, -5.0572], [-37.1504, -5.0592], [-37.1481, -5.0611], [-37.1485, -5.0655], [-37.1497, -5.0688], [-37.1519, -5.0711], [-37.1525, -5.0729], [-37.1528, -5.0765], [-37.1503, -5.0807], [-37.1483, -5.0831], [-37.1474, -5.0856], [-37.1454, -5.0893], [-37.1447, -5.0901], [-37.1436, -5.0938], [-37.1429, -5.0975], [-37.1414, -5.0997], [-37.141, -5.1012], [-37.1376, -5.1046], [-37.1374, -5.1054], [-37.1339, -5.1079], [-37.1305, -5.1112], [-37.1255, -5.1153], [-37.1212, -5.1194], [-37.118, -5.1219], [-37.1114, -5.1247], [-37.1113, -5.1327], [-37.1054, -5.1327], [-37.1055, -5.15], [-37.1111, -5.15], [-37.1111, -5.1666], [-37.1565, -5.1667], [-37.1561, -5.2403], [-37.1558, -5.2939], [-37.1261, -5.2934], [-37.1392, -5.3356], [-37.1429, -5.3739], [-37.1686, -5.4744], [-37.1728, -5.4905], [-37.2947, -5.4779], [-37.2948, -5.4755], [-37.2954, -5.474], [-37.2985, -5.4699], [-37.2987, -5.4664], [-37.3012, -5.4646], [-37.3021, -5.4632], [-37.301, -5.4614], [-37.3016, -5.46], [-37.3006, -5.4572], [-37.3008, -5.4545], [-37.2991, -5.4533], [-37.2985, -5.4518], [-37.2989, -5.4489], [-37.2998, -5.4472], [-37.3014, -5.4454], [-37.302, -5.4434], [-37.3015, -5.4415], [-37.2998, -5.4392], [-37.2983, -5.4335], [-37.2963, -5.4309], [-37.2947, -5.4296], [-37.2933, -5.4209], [-37.2933, -5.4172], [-37.2941, -5.4135], [-37.2974, -5.4077], [-37.2969, -5.403], [-37.2984, -5.4017], [-37.299, -5.4003], [-37.3025, -5.3999], [-37.3036, -5.3988], [-37.3036, -5.3977], [-37.3008, -5.3964], [-37.2995, -5.3967], [-37.2975, -5.3957], [-37.2969, -5.3942], [-37.297, -5.3925], [-37.2958, -5.3914], [-37.3672, -5.3474], [-37.426, -5.3112], [-37.4639, -5.3032], [-37.5485, -5.2853], [-37.5831, -5.2779], [-37.562, -5.2195]], [[-37.39391624309526, -5.183607260650587], [-37.395614348920205, -5.195525868294993], [-37.39561516215053, -5.195553341052435], [-37.39560985627439, -5.195580308837319], [-37.37995122870803, -5.245111020244594], [-37.37994113034797, -5.245134171347755], [-37.379919322376445, -5.245146913515197], [-37.36350586195599, -5.252549115124391], [-37.363486127160684, -5.2525557784981345], [-37.36348746912438, -5.252534992401157], [-37.363722046256086, -5.251104311838301], [-37.3637284321334, -5.251009183851823], [-37.36371664514563, -5.2509145731750495], [-37.36368711387298, -5.250823919895042], [-37.363640912085906, -5.250740520206124], [-37.363579719702315, -5.250667406558762], [-37.36350576170499, -5.25060723739829], [-37.363421727240215, -5.250562200502639], [-37.363330671839186, -5.250533933433734], [-37.36323590631754, -5.2505234639950045], [-37.3559129099984, -5.250416951052907], [-37.35590588963088, -5.250416898235262], [-37.33186470707154, -5.250404812219684], [-37.33184252767194, -5.250402639389361], [-37.33184001439404, -5.25038049598418], [-37.33177795743159, -5.24646916277686], [-37.33176649201242, -5.246370345335969], [-37.3317356902619, -5.246275753609979], [-37.33168677147872, -5.246189132047345], [-37.33162167213101, -5.246113909594662], [-37.331542969200505, -5.246053063960541], [-37.331453778171834, -5.24600900374191], [-37.331357629704854, -5.245983473078819], [-37.331258329872185, -5.24597748261201], [-37.33115980949442, -5.245991269476327], [-37.331065968537175, -5.246024287913648], [-37.32095301483356, -5.250760237168512], [-37.320932087939724, -5.250767669270484], [-37.32092032991068, -5.250748829955778], [-37.320617352477335, -5.250139221791213], [-37.320564896126655, -5.250055578618542], [-37.320497026764926, -5.249983873675891], [-37.32041639071334, -5.249926902839092], [-37.320326132084126, -5.249886887480615], [-37.32022977018726, -5.249865387855159], [-37.32013106230766, -5.249863242263141], [-37.320033857203356, -5.249880534364187], [-37.31994194503709, -5.249916589915134], [-37.31985890959256, -5.249970003059709], [-37.31978798853768, -5.250038691144827], [-37.31973194718342, -5.250119975926142], [-37.31820507396118, -5.252883849364788], [-37.31819285437579, -5.252901696072895], [-37.31817453187789, -5.252890202190653], [-37.311447833502136, -5.2477133554883375], [-37.311414407673496, -5.247682378710264], [-37.305227350359196, -5.240795807518639], [-37.3052080822846, -5.240775531637309], [-37.29838997350664, -5.233991351245503], [-37.29838091557307, -5.233982563079558], [-37.29033166647088, -5.226367881129705], [-37.29025350792673, -5.226307388689222], [-37.290164977466986, -5.22626345179041], [-37.29006953418685, -5.226237787152189], [-37.2899709072818, -5.226231397552892], [-37.28987295033911, -5.2262445326493285], [-37.288961392054766, -5.226460171729282], [-37.28893884996801, -5.226463223747414], [-37.288927295973814, -5.226443628704471], [-37.286520674822896, -5.221265273393959], [-37.28651781458077, -5.221258886568094], [-37.28604124005021, -5.22015348845231], [-37.28599971889291, -5.220076505344627], [-37.28594541775479, -5.220007935732034], [-37.28587999833872, -5.219949877955864], [-37.285861012486855, -5.219935793123803], [-37.285771492212845, -5.219882850077578], [-37.28567295573137, -5.219849572345952], [-37.2827075917529, -5.219181784891219], [-37.28268684044974, -5.219175128933408], [-37.28266970368152, -5.219161666038833], [-37.272991513232874, -5.210058536975819], [-37.27297691269981, -5.21004177614935], [-37.2729939529748, -5.210027502751108], [-37.30525772956621, -5.188054814343036], [-37.30526245175886, -5.188051558571232], [-37.310398943404195, -5.18446650344541], [-37.31047636150992, -5.184399721025731], [-37.310538576651126, -5.1843185869954045], [-37.31058298737518, -5.184226493878065], [-37.31060773670011, -5.184127292438623], [-37.31061178976215, -5.184025130668081], [-37.31059497708728, -5.1839242803401895], [-37.31055800167764, -5.183828958392273], [-37.31050240961632, -5.18374315059898], [-37.303854482175346, -5.175476622122953], [-37.30384180656215, -5.175457023750627], [-37.30385965573186, -5.175441984651309], [-37.311547188570714, -5.170216819791343], [-37.31164099463329, -5.170134158913678], [-37.31513726240108, -5.166172798076655], [-37.31515282767918, -5.166158043836925], [-37.3151742513665, -5.16615704830053], [-37.31591278455426, -5.166188522835519], [-37.31601794552448, -5.166181891666674], [-37.316119381660954, -5.166153369530108], [-37.316212588062314, -5.16610422312837], [-37.316878084204696, -5.165657862110911], [-37.31695503717459, -5.165594244646223], [-37.31701781562624, -5.1655166056908115], [-37.31706391622082, -5.16542804115746], [-37.31709150066183, -5.165332082624737], [-37.31709946899858, -5.165232556512595], [-37.31708750348752, -5.165133431500949], [-37.317056081262585, -5.165038660275524], [-37.317006455309034, -5.164952021911488], [-37.314219952759736, -5.16105039645811], [-37.31420839596332, -5.161030440304975], [-37.31420947245703, -5.1610074044904275], [-37.314288696158435, -5.160453113186127], [-37.31429231607226, -5.160344841439678], [-37.3142725304382, -5.160238331329641], [-37.31423026806317, -5.160138582813304], [-37.31416751289093, -5.160050278435085], [-37.312392530925116, -5.158052431642087], [-37.3123801962021, -5.15803536122363], [-37.312400905078846, -5.158031528860924], [-37.31266898141784, -5.158009412882552], [-37.31275045772331, -5.1579958455458605], [-37.312828588674634, -5.157969049736059], [-37.31290124209035, -5.157929756706615], [-37.3451281565178, -5.136886247632495], [-37.34520627106452, -5.136823206472709], [-37.34527021926255, -5.136745832716142], [-37.34531742372575, -5.136657244856418], [-37.34534598191218, -5.136561013363524], [-37.34535474280466, -5.136461016778585], [-37.34534335330172, -5.136361285392055], [-37.345275475169025, -5.136049342716654], [-37.34527287460875, -5.136026848543524], [-37.34529452275716, -5.13602020712747], [-37.34722502786246, -5.135631858251742], [-37.34732399751644, -5.135600985656681], [-37.34741447287638, -5.135550366304848], [-37.347492564185956, -5.1354821764455965], [-37.34834316212639, -5.134567515641537], [-37.34835991220628, -5.134552529175082], [-37.34838092548415, -5.134544554119756], [-37.356755775199005, -5.132218240125031], [-37.356778607482326, -5.132214348927067], [-37.35678566523304, -5.132236408907472], [-37.357488245415034, -5.1355735380743806], [-37.35751747467178, -5.135666382959166], [-37.357564138748785, -5.135751805356688], [-37.35762646916673, -5.135826567921379], [-37.35770210372194, -5.135887837294958], [-37.357788176009365, -5.135933291485296], [-37.357881424053836, -5.1359612078654715], [-37.35797831393275, -5.135970528458042], [-37.3580751737049, -5.135960900030369], [-37.358168332570095, -5.135932687481455], [-37.359665003917144, -5.1353147512268515], [-37.35976790333933, -5.135257232159277], [-37.35985447618481, -5.135177220431097], [-37.36192741070165, -5.13274887924405], [-37.361943373011506, -5.132733475057087], [-37.361961872301414, -5.132745716812884], [-37.37265258317915, -5.141411598710622], [-37.37272221477103, -5.141458918227774], [-37.37389676113432, -5.142119917017193], [-37.37399344285486, -5.142161606317834], [-37.374096710963414, -5.142182125836089], [-37.37420198640629, -5.142180565707554], [-37.374304601121764, -5.142156995110533], [-37.37440000502849, -5.142112459198565], [-37.3744839677826, -5.14204893275685], [-37.37464454688549, -5.141898376376483], [-37.37466314060137, -5.141884243897123], [-37.374679478289366, -5.141900933210872], [-37.38126117934969, -5.150183465164981], [-37.38127390755358, -5.150203358054888], [-37.3812594640793, -5.150222042815925], [-37.38122973750744, -5.150253298022822], [-37.38116753761042, -5.1503336874549825], [-37.381122880324234, -5.150424994709801], [-37.381097611118015, -5.150523446501096], [-37.38109277424555, -5.15062497429363], [-37.381108569591326, -5.150725382435949], [-37.38114434441029, -5.150820521546311], [-37.3811986203026, -5.1509064599865235], [-37.38126915430876, -5.150979646337484], [-37.382945488831005, -5.152397436880979], [-37.3829821866671, -5.152435898480435], [-37.383620715164795, -5.1532669975492675], [-37.38363271337015, -5.153285993133446], [-37.383637096373086, -5.153308028977691], [-37.383654167444554, -5.1534706560379435], [-37.38367169025686, -5.153559328719656], [-37.38370489093243, -5.153643397789921], [-37.383752684487334, -5.153720115907354], [-37.38575700637514, -5.15636955296511], [-37.38576805197607, -5.156387007411349], [-37.385776044547754, -5.156406054242959], [-37.38595167457328, -5.156947131961469], [-37.38595666405453, -5.156969546808515], [-37.38594878996153, -5.156991118061387], [-37.385278300087315, -5.158397635120005], [-37.38525063729863, -5.158469417260038], [-37.38523431329606, -5.158544593269809], [-37.385097576835705, -5.159537736518528], [-37.38508145567568, -5.159597833483886], [-37.38247399481155, -5.165989390398798], [-37.382462390964925, -5.166011094431054], [-37.38243854958536, -5.166017202040468], [-37.38139201635914, -5.1661723247444575], [-37.38128220608291, -5.166201661495904], [-37.38118185877375, -5.1662550408861], [-37.381096159955845, -5.166329704494116], [-37.380839946097275, -5.166610194895156], [-37.38077971494437, -5.166691254548242], [-37.38073700063335, -5.166782763819758], [-37.38071354564485, -5.16688098969544], [-37.38071030679783, -5.1669819251649685], [-37.38072741621729, -5.1670814526832975], [-37.380764175944364, -5.167175512141111], [-37.38081908640876, -5.167260266492261], [-37.38838631096748, -5.176694113674828], [-37.39389915824971, -5.183567816704885], [-37.393911251780736, -5.183586000542129], [-37.39391624309526, -5.183607260650587]]]}}]}
